start=new Date('2023-06-21T00:00:00.000Z').valueOf();
sats=[{"EPHEMERIS_TYPE":"0","ELEMENT_SET_NO":"999","OBJECT_ID":"2021-021AW","CENTER_NAME":"EARTH","SEMIMAJOR_AXIS":"6925.367","GP_ID":"234391937","NORAD_CAT_ID":"47904","PERIAPSIS":"546.461","APOAPSIS":"548.004","RCS_SIZE":"LARGE","MEAN_ELEMENT_THEORY":"SGP4","OBJECT_NAME":"STARLINK-2364","REF_FRAME":"TEME","REV_AT_EPOCH":"12667","SITE":"AFETR","INCLINATION":"53.0542","DECAY_DATE":null,"CLASSIFICATION_TYPE":"U","ECCENTRICITY":"0.00011140","MEAN_MOTION_DDOT":"0.0000000000000","FILE":"3938544","RA_OF_ASC_NODE":"38.5244","TLE_LINE1":"1 47904U 21021AW  23171.87740388  .00018392  00000-0  12506-2 0  9998","TLE_LINE2":"2 47904  53.0542  38.5244 0001114 107.8263 252.2848 15.06393927126673","COUNTRY_CODE":"US","PERIOD":"95.593","MEAN_MOTION":"15.06393927","MEAN_MOTION_DOT":"0.00018392","TIME_SYSTEM":"UTC","BSTAR":"0.00125060000000","OBJECT_TYPE":"PAYLOAD","MEAN_ANOMALY":"252.2848","EPOCH":"2023-06-20T21:03:27.695232","ARG_OF_PERICENTER":"107.8263","LAUNCH_DATE":"2021-03-14"},{"ELEMENT_SET_NO":"999","EPHEMERIS_TYPE":"0","CENTER_NAME":"EARTH","OBJECT_ID":"2021-021AX","SEMIMAJOR_AXIS":"6925.380","GP_ID":"234391688","NORAD_CAT_ID":"47905","APOAPSIS":"548.076","PERIAPSIS":"546.413","RCS_SIZE":"LARGE","MEAN_ELEMENT_THEORY":"SGP4","REF_FRAME":"TEME","OBJECT_NAME":"STARLINK-2365","REV_AT_EPOCH":"12680","SITE":"AFETR","INCLINATION":"53.0544","CLASSIFICATION_TYPE":"U","DECAY_DATE":null,"ECCENTRICITY":"0.00012010","MEAN_MOTION_DDOT":"0.0000000000000","TLE_LINE1":"1 47905U 21021AX  23171.87277054  .00019528  00000-0  13266-2 0  9990","RA_OF_ASC_NODE":"38.5358","FILE":"3938544","TLE_LINE2":"2 47905  53.0544  38.5358 0001201 111.2456 248.8662 15.06389887126802","PERIOD":"95.593","COUNTRY_CODE":"US","MEAN_MOTION":"15.06389887","TIME_SYSTEM":"UTC","MEAN_MOTION_DOT":"0.00019528","BSTAR":"0.00132660000000","OBJECT_TYPE":"PAYLOAD","MEAN_ANOMALY":"248.8662","ARG_OF_PERICENTER":"111.2456","EPOCH":"2023-06-20T20:56:47.374656","LAUNCH_DATE":"2021-03-14"},{"MEAN_MOTION_DDOT":"0.0006711900000","COUNTRY_CODE":"US","PERIOD":"90.377","TLE_LINE2":"2 47906  52.9873  49.1007 0008540 245.9808 244.2871 15.93329359131086","FILE":"3938547","RA_OF_ASC_NODE":"49.1007","TLE_LINE1":"1 47906U 21021AY  23172.12990628  .01195955  67119-3  33075-2 0  9996","BSTAR":"0.00330750000000","OBJECT_TYPE":"PAYLOAD","MEAN_MOTION_DOT":"0.01195955","TIME_SYSTEM":"UTC","MEAN_MOTION":"15.93329359","LAUNCH_DATE":"2021-03-14","ARG_OF_PERICENTER":"245.9808","EPOCH":"2023-06-21T03:07:03.902592","MEAN_ANOMALY":"244.2871","PERIAPSIS":"287.278","APOAPSIS":"298.673","NORAD_CAT_ID":"47906","GP_ID":"234398040","SEMIMAJOR_AXIS":"6671.111","OBJECT_ID":"2021-021AY","CENTER_NAME":"EARTH","EPHEMERIS_TYPE":"0","ELEMENT_SET_NO":"999","REV_AT_EPOCH":"13108","REF_FRAME":"TEME","OBJECT_NAME":"STARLINK-2366","MEAN_ELEMENT_THEORY":"SGP4","RCS_SIZE":"LARGE","INCLINATION":"52.9873","SITE":"AFETR","ECCENTRICITY":"0.00085400","DECAY_DATE":null,"CLASSIFICATION_TYPE":"U"},{"RCS_SIZE":"LARGE","MEAN_ELEMENT_THEORY":"SGP4","REF_FRAME":"TEME","OBJECT_NAME":"STARLINK-2367","REV_AT_EPOCH":"12637","ELEMENT_SET_NO":"999","EPHEMERIS_TYPE":"0","CENTER_NAME":"EARTH","OBJECT_ID":"2021-021AZ","NORAD_CAT_ID":"47907","GP_ID":"234393186","SEMIMAJOR_AXIS":"6925.384","APOAPSIS":"548.035","PERIAPSIS":"546.463","CLASSIFICATION_TYPE":"U","DECAY_DATE":null,"ECCENTRICITY":"0.00011350","SITE":"AFETR","INCLINATION":"53.0541","TLE_LINE1":"1 47907U 21021AZ  23171.88293565  .00019517  00000-0  13259-2 0  9998","RA_OF_ASC_NODE":"58.5064","FILE":"3938544","TLE_LINE2":"2 47907  53.0541  58.5064 0001135  74.7426 285.3688 15.06388370126375","PERIOD":"95.593","COUNTRY_CODE":"US","MEAN_MOTION_DDOT":"0.0000000000000","MEAN_ANOMALY":"285.3688","ARG_OF_PERICENTER":"74.7426","EPOCH":"2023-06-20T21:11:25.640160","LAUNCH_DATE":"2021-03-14","MEAN_MOTION":"15.06388370","MEAN_MOTION_DOT":"0.00019517","TIME_SYSTEM":"UTC","OBJECT_TYPE":"PAYLOAD","BSTAR":"0.00132590000000"},{"TLE_LINE2":"2 47908  53.0547  58.4707 0001317  76.6061 283.5074 15.06391674126407","COUNTRY_CODE":"US","PERIOD":"95.593","FILE":"3938544","RA_OF_ASC_NODE":"58.4707","TLE_LINE1":"1 47908U 21021BA  23171.89030642  .00015802  00000-0  10776-2 0  9999","MEAN_MOTION_DDOT":"0.0000000000000","ARG_OF_PERICENTER":"76.6061","EPOCH":"2023-06-20T21:22:02.474688","LAUNCH_DATE":"2021-03-14","MEAN_ANOMALY":"283.5074","TIME_SYSTEM":"UTC","MEAN_MOTION_DOT":"0.00015802","OBJECT_TYPE":"PAYLOAD","BSTAR":"0.00107760000000","MEAN_MOTION":"15.06391674","REF_FRAME":"TEME","OBJECT_NAME":"STARLINK-2368","REV_AT_EPOCH":"12640","RCS_SIZE":"LARGE","MEAN_ELEMENT_THEORY":"SGP4","SEMIMAJOR_AXIS":"6925.374","GP_ID":"234391438","NORAD_CAT_ID":"47908","PERIAPSIS":"546.327","APOAPSIS":"548.151","ELEMENT_SET_NO":"999","EPHEMERIS_TYPE":"0","OBJECT_ID":"2021-021BA","CENTER_NAME":"EARTH","ECCENTRICITY":"0.00013170","DECAY_DATE":null,"CLASSIFICATION_TYPE":"U","SITE":"AFETR","INCLINATION":"53.0547"},{"FILE":"3938544","TLE_LINE1":"1 47909U 21021BB  23171.83961775  .00018971  00000-0  12890-2 0  9993","RA_OF_ASC_NODE":"48.6967","TLE_LINE2":"2 47909  53.0539  48.6967 0001024  76.3775 283.7328 15.06401483126709","COUNTRY_CODE":"US","PERIOD":"95.592","MEAN_MOTION_DDOT":"0.0000000000000","MEAN_ANOMALY":"283.7328","EPOCH":"2023-06-20T20:09:02.973600","ARG_OF_PERICENTER":"76.3775","LAUNCH_DATE":"2021-03-14","MEAN_MOTION":"15.06401483","MEAN_MOTION_DOT":"0.00018971","TIME_SYSTEM":"UTC","OBJECT_TYPE":"PAYLOAD","BSTAR":"0.00128900000000","RCS_SIZE":"LARGE","MEAN_ELEMENT_THEORY":"SGP4","OBJECT_NAME":"STARLINK-2369","REF_FRAME":"TEME","REV_AT_EPOCH":"12670","EPHEMERIS_TYPE":"0","ELEMENT_SET_NO":"999","OBJECT_ID":"2021-021BB","CENTER_NAME":"EARTH","GP_ID":"234392188","SEMIMAJOR_AXIS":"6925.344","NORAD_CAT_ID":"47909","PERIAPSIS":"546.500","APOAPSIS":"547.918","DECAY_DATE":null,"CLASSIFICATION_TYPE":"U","ECCENTRICITY":"0.00010240","SITE":"AFETR","INCLINATION":"53.0539"},{"FILE":"3938544","TLE_LINE1":"1 47910U 21021BC  23171.87553259  .00015684  00000-0  10698-2 0  9995","RA_OF_ASC_NODE":"48.5369","COUNTRY_CODE":"US","PERIOD":"95.593","TLE_LINE2":"2 47910  53.0549  48.5369 0001104  99.7636 260.3478 15.06389000126562","MEAN_MOTION_DDOT":"0.0000000000000","MEAN_ANOMALY":"260.3478","LAUNCH_DATE":"2021-03-14","EPOCH":"2023-06-20T21:00:46.015776","ARG_OF_PERICENTER":"99.7636","MEAN_MOTION":"15.06389000","BSTAR":"0.00106980000000","OBJECT_TYPE":"PAYLOAD","MEAN_MOTION_DOT":"0.00015684","TIME_SYSTEM":"UTC","MEAN_ELEMENT_THEORY":"SGP4","RCS_SIZE":"LARGE","REV_AT_EPOCH":"12656","REF_FRAME":"TEME","OBJECT_NAME":"STARLINK-2370","OBJECT_ID":"2021-021BC","CENTER_NAME":"EARTH","ELEMENT_SET_NO":"999","EPHEMERIS_TYPE":"0","PERIAPSIS":"546.483","APOAPSIS":"548.012","SEMIMAJOR_AXIS":"6925.382","GP_ID":"234392439","NORAD_CAT_ID":"47910","DECAY_DATE":null,"CLASSIFICATION_TYPE":"U","ECCENTRICITY":"0.00011040","INCLINATION":"53.0549","SITE":"AFETR"},{"INCLINATION":"53.0541","SITE":"AFETR","DECAY_DATE":null,"CLASSIFICATION_TYPE":"U","ECCENTRICITY":"0.00009770","OBJECT_ID":"2021-021BD","CENTER_NAME":"EARTH","EPHEMERIS_TYPE":"0","ELEMENT_SET_NO":"999","PERIAPSIS":"546.563","APOAPSIS":"547.916","GP_ID":"234392687","SEMIMAJOR_AXIS":"6925.375","NORAD_CAT_ID":"47911","MEAN_ELEMENT_THEORY":"SGP4","RCS_SIZE":"LARGE","REV_AT_EPOCH":"12618","OBJECT_NAME":"STARLINK-2371","REF_FRAME":"TEME","MEAN_MOTION":"15.06391414","OBJECT_TYPE":"PAYLOAD","BSTAR":"0.00127920000000","TIME_SYSTEM":"UTC","MEAN_MOTION_DOT":"0.00018819","MEAN_ANOMALY":"282.7412","LAUNCH_DATE":"2021-03-14","ARG_OF_PERICENTER":"77.3686","EPOCH":"2023-06-20T21:24:04.238208","MEAN_MOTION_DDOT":"0.0000000000000","FILE":"3938544","RA_OF_ASC_NODE":"63.7058","TLE_LINE1":"1 47911U 21021BD  23171.89171572  .00018819  00000-0  12792-2 0  9992","COUNTRY_CODE":"US","PERIOD":"95.593","TLE_LINE2":"2 47911  53.0541  63.7058 0000977  77.3686 282.7412 15.06391414126189"},{"MEAN_MOTION_DDOT":"0.0000000000000","FILE":"3938544","RA_OF_ASC_NODE":"48.5558","TLE_LINE1":"1 47912U 21021BE  23171.86816291  .00015721  00000-0  10724-2 0  9996","COUNTRY_CODE":"US","PERIOD":"95.593","TLE_LINE2":"2 47912  53.0548  48.5558 0001331  68.1763 291.9368 15.06384227126391","MEAN_MOTION":"15.06384227","OBJECT_TYPE":"PAYLOAD","BSTAR":"0.00107240000000","TIME_SYSTEM":"UTC","MEAN_MOTION_DOT":"0.00015721","MEAN_ANOMALY":"291.9368","LAUNCH_DATE":"2021-03-14","EPOCH":"2023-06-20T20:50:09.275424","ARG_OF_PERICENTER":"68.1763","OBJECT_ID":"2021-021BE","CENTER_NAME":"EARTH","EPHEMERIS_TYPE":"0","ELEMENT_SET_NO":"999","PERIAPSIS":"546.340","APOAPSIS":"548.184","GP_ID":"234391938","SEMIMAJOR_AXIS":"6925.397","NORAD_CAT_ID":"47912","MEAN_ELEMENT_THEORY":"SGP4","RCS_SIZE":"LARGE","REV_AT_EPOCH":"12639","REF_FRAME":"TEME","OBJECT_NAME":"STARLINK-2372","INCLINATION":"53.0548","SITE":"AFETR","DECAY_DATE":null,"CLASSIFICATION_TYPE":"U","ECCENTRICITY":"0.00013310"},{"ELEMENT_SET_NO":"999","EPHEMERIS_TYPE":"0","CENTER_NAME":"EARTH","OBJECT_ID":"2021-021BF","GP_ID":"234391689","SEMIMAJOR_AXIS":"6925.351","NORAD_CAT_ID":"47913","APOAPSIS":"548.038","PERIAPSIS":"546.394","RCS_SIZE":"LARGE","MEAN_ELEMENT_THEORY":"SGP4","REF_FRAME":"TEME","OBJECT_NAME":"STARLINK-2374","REV_AT_EPOCH":"12641","SITE":"AFETR","INCLINATION":"53.0542","CLASSIFICATION_TYPE":"U","DECAY_DATE":null,"ECCENTRICITY":"0.00011870","MEAN_MOTION_DDOT":"0.0000000000000","TLE_LINE1":"1 47913U 21021BF  23171.87561447 -.00004291  00000-0 -26936-3 0  9993","RA_OF_ASC_NODE":"59.0078","FILE":"3938544","TLE_LINE2":"2 47913  53.0542  59.0078 0001187  81.9530 278.1593 15.06399154126419","PERIOD":"95.592","COUNTRY_CODE":"US","MEAN_MOTION":"15.06399154","MEAN_MOTION_DOT":"-0.00004291","TIME_SYSTEM":"UTC","OBJECT_TYPE":"PAYLOAD","BSTAR":"-0.00026936000000","MEAN_ANOMALY":"278.1593","ARG_OF_PERICENTER":"81.9530","EPOCH":"2023-06-20T21:00:53.090208","LAUNCH_DATE":"2021-03-14"}];
